[{"OBJECT_NAME":"STARLINK-31725","OBJECT_ID":"2024-074E","EPOCH":"2026-03-09T22:00:01.999584","MEAN_MOTION":15.54053512,"ECCENTRICITY":0.00145121,"INCLINATION":42.9967,"RA_OF_ASC_NODE":323.6611,"ARG_OF_PERICENTER":238.6665,"MEAN_ANOMALY":359.4797,"EPHEMERIS_TYPE":0,"CLASSIFICATION_TYPE":"U","NORAD_CAT_ID":59538,"ELEMENT_SET_NO":999,"REV_AT_EPOCH":589,"BSTAR":0.0045341754,"MEAN_MOTION_DOT":0.00314571,"MEAN_MOTION_DDOT":0},{"OBJECT_NAME":"STARLINK-36620","OBJECT_ID":"2026-022G","EPOCH":"2026-03-09T22:00:01.999584","MEAN_MOTION":15.69211833,"ECCENTRICITY":0.00014478,"INCLINATION":97.2845,"RA_OF_ASC_NODE":102.899,"ARG_OF_PERICENTER":67.0153,"MEAN_ANOMALY":315.383,"EPHEMERIS_TYPE":0,"CLASSIFICATION_TYPE":"U","NORAD_CAT_ID":67654,"ELEMENT_SET_NO":999,"REV_AT_EPOCH":607,"BSTAR":-0.018655391,"MEAN_MOTION_DOT":-0.01919279,"MEAN_MOTION_DDOT":0}]
